{ "type": "FeatureCollection", "features": [
{"type":"Feature","geometry":{"type":"Point","coordinates":[-113.47568151042482,53.428749796063194]},"properties":{":id":"row-u29c_iqmc~chpf",":version":"rv-7v7n.v5zb-qtsk",":created_at":"2025-12-01T19:16:40.167Z",":updated_at":"2025-12-01T19:16:44.774Z","latitude":"53.428749796063194","longitude":"-113.47568151042482","location":{"latitude":53.428749796063194,"longitude":-113.47568151042482,"human_address":"{\"address\": \"\", \"city\": \"\", \"state\": \"\", \"zip\": \"\"}"},"address":"1203 ELLWOOD ROAD SW","name":"27",":@computed_region_7ccj_gre3":"359",":@computed_region_ecxu_fw7u":"81",":@computed_region_izdr_ja4x":"9",":@computed_region_5jki_au6x":"7",":@computed_region_mnf4_kaez":"4",":@computed_region_da6r_6gkw":"12",":@computed_region_3z8d_fhyb":null}},
{"type":"Feature","geometry":{"type":"Point","coordinates":[-113.38694811633935,53.60134565637725]},"properties":{":id":"row-9hnx~9sg6.4efy",":version":"rv-utes.5rj6~g36z",":created_at":"2025-12-01T19:16:40.167Z",":updated_at":"2025-12-01T19:16:44.774Z","latitude":"53.60134565637725","longitude":"-113.38694811633935","location":{"latitude":53.60134565637725,"longitude":-113.38694811633935,"human_address":"{\"address\": \"\", \"city\": \"\", \"state\": \"\", \"zip\": \"\"}"},"address":"13808 Victoria Trail NW","name":"18",":@computed_region_7ccj_gre3":"144",":@computed_region_ecxu_fw7u":"184",":@computed_region_izdr_ja4x":"2",":@computed_region_5jki_au6x":"3",":@computed_region_mnf4_kaez":"7",":@computed_region_da6r_6gkw":"4",":@computed_region_3z8d_fhyb":null}},
{"type":"Feature","geometry":{"type":"Point","coordinates":[-113.58984273975588,53.555648590549175]},"properties":{":id":"row-nv2e~3axu.752f",":version":"rv-femd~f5un~q95r",":created_at":"2025-12-01T19:16:40.167Z",":updated_at":"2025-12-01T19:16:44.774Z","latitude":"53.555648590549175","longitude":"-113.58984273975588","location":{"latitude":53.555648590549175,"longitude":-113.58984273975588,"human_address":"{\"address\": \"\", \"city\": \"\", \"state\": \"\", \"zip\": \"\"}"},"address":"10949-156 Street NW","name":"04",":@computed_region_7ccj_gre3":"6",":@computed_region_ecxu_fw7u":"188",":@computed_region_izdr_ja4x":"3",":@computed_region_5jki_au6x":"1",":@computed_region_mnf4_kaez":"1",":@computed_region_da6r_6gkw":"1",":@computed_region_3z8d_fhyb":null}},
{"type":"Feature","geometry":{"type":"Point","coordinates":[-113.68622546680321,53.5265093579123]},"properties":{":id":"row-utq9-u6wy~fr5j",":version":"rv-shfa~7ex5.3554",":created_at":"2025-12-01T19:16:40.167Z",":updated_at":"2025-12-01T19:16:44.774Z","latitude":"53.5265093579123","longitude":"-113.68622546680321","location":{"latitude":53.5265093579123,"longitude":-113.68622546680321,"human_address":"{\"address\": \"\", \"city\": \"\", \"state\": \"\", \"zip\": \"\"}"},"address":"9204 213 ST NW","name":"29",":@computed_region_7ccj_gre3":"222",":@computed_region_ecxu_fw7u":"158",":@computed_region_izdr_ja4x":"3",":@computed_region_5jki_au6x":"4",":@computed_region_mnf4_kaez":"1",":@computed_region_da6r_6gkw":"1",":@computed_region_3z8d_fhyb":null}},
{"type":"Feature","geometry":{"type":"Point","coordinates":[-113.49201888338703,53.52881511434489]},"properties":{":id":"row-b6im-in8g~rtd8",":version":"rv-2qab-x9fq-6i4g",":created_at":"2025-12-01T19:16:40.167Z",":updated_at":"2025-12-01T19:16:44.774Z","latitude":"53.52881511434489","longitude":"-113.49201888338703","location":{"latitude":53.52881511434489,"longitude":-113.49201888338703,"human_address":"{\"address\": \"\", \"city\": \"\", \"state\": \"\", \"zip\": \"\"}"},"address":"9315 - 101 Street","name":"21",":@computed_region_7ccj_gre3":"366",":@computed_region_ecxu_fw7u":"24",":@computed_region_izdr_ja4x":"4",":@computed_region_5jki_au6x":"5",":@computed_region_mnf4_kaez":"9",":@computed_region_da6r_6gkw":"6",":@computed_region_3z8d_fhyb":null}},
{"type":"Feature","geometry":{"type":"Point","coordinates":[-113.59096637358441,53.45920550280962]},"properties":{":id":"row-apek~csiw-zki3",":version":"rv-k2d8~m6mb_nmuf",":created_at":"2025-12-01T19:16:40.167Z",":updated_at":"2025-12-01T19:16:44.774Z","latitude":"53.45920550280962","longitude":"-113.59096637358441","location":{"latitude":53.45920550280962,"longitude":-113.59096637358441,"human_address":"{\"address\": \"\", \"city\": \"\", \"state\": \"\", \"zip\": \"\"}"},"address":"131 Haddow Close NW","name":"24",":@computed_region_7ccj_gre3":"261",":@computed_region_ecxu_fw7u":"79",":@computed_region_izdr_ja4x":"8",":@computed_region_5jki_au6x":"6",":@computed_region_mnf4_kaez":"12",":@computed_region_da6r_6gkw":"9",":@computed_region_3z8d_fhyb":null}},
{"type":"Feature","geometry":{"type":"Point","coordinates":[-113.50091512824577,53.4543966858291]},"properties":{":id":"row-ttsb-ysuz-dwx5",":version":"rv-35hx-dj7s-x8fj",":created_at":"2025-12-01T19:16:40.167Z",":updated_at":"2025-12-01T19:16:44.774Z","latitude":"53.4543966858291","longitude":"-113.50091512824577","location":{"latitude":53.4543966858291,"longitude":-113.50091512824577,"human_address":"{\"address\": \"\", \"city\": \"\", \"state\": \"\", \"zip\": \"\"}"},"address":"2303-105 Street NW","name":"20",":@computed_region_7ccj_gre3":"281",":@computed_region_ecxu_fw7u":"173",":@computed_region_izdr_ja4x":"6",":@computed_region_5jki_au6x":"6",":@computed_region_mnf4_kaez":"2",":@computed_region_da6r_6gkw":"10",":@computed_region_3z8d_fhyb":null}},
{"type":"Feature","geometry":{"type":"Point","coordinates":[-113.42863116023366,53.53841691396087]},"properties":{":id":"row-mkg8.vhzz.9wpi",":version":"rv-b7fy_6fww_rx4y",":created_at":"2025-12-01T19:16:40.167Z",":updated_at":"2025-12-01T19:16:44.774Z","latitude":"53.53841691396087","longitude":"-113.42863116023366","location":{"latitude":53.53841691396087,"longitude":-113.42863116023366,"human_address":"{\"address\": \"\", \"city\": \"\", \"state\": \"\", \"zip\": \"\"}"},"address":"6110 - 98 AVE NW","name":"11",":@computed_region_7ccj_gre3":"23",":@computed_region_ecxu_fw7u":"123",":@computed_region_izdr_ja4x":"7",":@computed_region_5jki_au6x":"5",":@computed_region_mnf4_kaez":"11",":@computed_region_da6r_6gkw":"8",":@computed_region_3z8d_fhyb":null}},
{"type":"Feature","geometry":{"type":"Point","coordinates":[-113.53858104975804,53.41080418821162]},"properties":{":id":"row-xsyn.cbcp~8rv7",":version":"rv-zki6.svvz.yhj4",":created_at":"2025-12-01T19:16:40.167Z",":updated_at":"2025-12-01T19:16:44.774Z","latitude":"53.41080418821162","longitude":"-113.53858104975804","location":{"latitude":53.41080418821162,"longitude":-113.53858104975804,"human_address":"{\"address\": \"\", \"city\": \"\", \"state\": \"\", \"zip\": \"\"}"},"address":"12110 26 AVENUE SW","name":"28",":@computed_region_7ccj_gre3":"310",":@computed_region_ecxu_fw7u":"82",":@computed_region_izdr_ja4x":"8",":@computed_region_5jki_au6x":"6",":@computed_region_mnf4_kaez":"12",":@computed_region_da6r_6gkw":"9",":@computed_region_3z8d_fhyb":null}},
{"type":"Feature","geometry":{"type":"Point","coordinates":[-113.41929636540624,53.570043266682674]},"properties":{":id":"row-wmug_hbnt.fbe6",":version":"rv-ju6c_p63r_tm2s",":created_at":"2025-12-01T19:16:40.167Z",":updated_at":"2025-12-01T19:16:44.774Z","latitude":"53.570043266682674","longitude":"-113.41929636540624","location":{"latitude":53.570043266682674,"longitude":-113.41929636540624,"human_address":"{\"address\": \"\", \"city\": \"\", \"state\": \"\", \"zip\": \"\"}"},"address":"5025-118 Avenue NW","name":"07",":@computed_region_7ccj_gre3":"8",":@computed_region_ecxu_fw7u":"168",":@computed_region_izdr_ja4x":"4",":@computed_region_5jki_au6x":"3",":@computed_region_mnf4_kaez":"10",":@computed_region_da6r_6gkw":"7",":@computed_region_3z8d_fhyb":null}},
{"type":"Feature","geometry":{"type":"Point","coordinates":[-113.60567743900096,53.42545398091557]},"properties":{":id":"row-bejz~ttvz~trvv",":version":"rv-9kw9-g7tj.ppph",":created_at":"2025-12-01T19:16:40.167Z",":updated_at":"2025-12-01T19:16:44.774Z","latitude":"53.42545398091557","longitude":"-113.60567743900096","location":{"latitude":53.42545398091557,"longitude":-113.60567743900096,"human_address":"{\"address\": \"\", \"city\": \"\", \"state\": \"\", \"zip\": \"\"}"},"address":"3865 Allan Drive SW","name":"31",":@computed_region_7ccj_gre3":"306",":@computed_region_ecxu_fw7u":"78",":@computed_region_izdr_ja4x":"8",":@computed_region_5jki_au6x":"6",":@computed_region_mnf4_kaez":"12",":@computed_region_da6r_6gkw":"9",":@computed_region_3z8d_fhyb":null}},
{"type":"Feature","geometry":{"type":"Point","coordinates":[-113.43504289801854,53.45967114781248]},"properties":{":id":"row-wexv_wrre.uk5j",":version":"rv-3sp6.reip.bzwy",":created_at":"2025-12-01T19:16:40.167Z",":updated_at":"2025-12-01T19:16:44.774Z","latitude":"53.45967114781248","longitude":"-113.43504289801854","location":{"latitude":53.45967114781248,"longitude":-113.43504289801854,"human_address":"{\"address\": \"\", \"city\": \"\", \"state\": \"\", \"zip\": \"\"}"},"address":"2904-66 Street NW","name":"16",":@computed_region_7ccj_gre3":"53",":@computed_region_ecxu_fw7u":"56",":@computed_region_izdr_ja4x":"9",":@computed_region_5jki_au6x":"7",":@computed_region_mnf4_kaez":"3",":@computed_region_da6r_6gkw":"11",":@computed_region_3z8d_fhyb":null}},
{"type":"Feature","geometry":{"type":"Point","coordinates":[-113.53457932519804,53.5421627279057]},"properties":{":id":"row-gatf-ijb7-xj9y",":version":"rv-kykd_7djm.ea4i",":created_at":"2025-12-01T19:16:40.167Z",":updated_at":"2025-12-01T19:16:44.774Z","latitude":"53.5421627279057","longitude":"-113.53457932519804","location":{"latitude":53.5421627279057,"longitude":-113.53457932519804,"human_address":"{\"address\": \"\", \"city\": \"\", \"state\": \"\", \"zip\": \"\"}"},"address":"10124-123 Street NW","name":"22",":@computed_region_7ccj_gre3":"182",":@computed_region_ecxu_fw7u":"144",":@computed_region_izdr_ja4x":"4",":@computed_region_5jki_au6x":"5",":@computed_region_mnf4_kaez":"9",":@computed_region_da6r_6gkw":"6",":@computed_region_3z8d_fhyb":null}},
{"type":"Feature","geometry":{"type":"Point","coordinates":[-113.63038127788106,53.49665351355735]},"properties":{":id":"row-5jvf-bfyd-q58f",":version":"rv-9n4t_neth_hydt",":created_at":"2025-12-01T19:16:40.167Z",":updated_at":"2025-12-01T19:16:44.774Z","latitude":"53.49665351355735","longitude":"-113.63038127788106","location":{"latitude":53.49665351355735,"longitude":-113.63038127788106,"human_address":"{\"address\": \"\", \"city\": \"\", \"state\": \"\", \"zip\": \"\"}"},"address":"6210-178 Street NW","name":"19",":@computed_region_7ccj_gre3":"69",":@computed_region_ecxu_fw7u":"25",":@computed_region_izdr_ja4x":"5",":@computed_region_5jki_au6x":"4",":@computed_region_mnf4_kaez":"8",":@computed_region_da6r_6gkw":"5",":@computed_region_3z8d_fhyb":null}},
{"type":"Feature","geometry":{"type":"Point","coordinates":[-113.49299660558522,53.58549694439745]},"properties":{":id":"row-vcb2_zm8h_yj4m",":version":"rv-kfg8-73zg-4vig",":created_at":"2025-12-01T19:16:40.167Z",":updated_at":"2025-12-01T19:16:44.774Z","latitude":"53.58549694439745","longitude":"-113.49299660558522","location":{"latitude":53.58549694439745,"longitude":-113.49299660558522,"human_address":"{\"address\": \"\", \"city\": \"\", \"state\": \"\", \"zip\": \"\"}"},"address":"12735-101 Street NW","name":"10",":@computed_region_7ccj_gre3":"36",":@computed_region_ecxu_fw7u":"223",":@computed_region_izdr_ja4x":"1",":@computed_region_5jki_au6x":"2",":@computed_region_mnf4_kaez":"5",":@computed_region_da6r_6gkw":"2",":@computed_region_3z8d_fhyb":null}},
{"type":"Feature","geometry":{"type":"Point","coordinates":[-113.47626614165334,53.5174048224084]},"properties":{":id":"row-4yjq-kxc9~avgx",":version":"rv-zyqt-84ba.kjma",":created_at":"2025-12-01T19:16:40.167Z",":updated_at":"2025-12-01T19:16:44.774Z","latitude":"53.5174048224084","longitude":"-113.47626614165334","location":{"latitude":53.5174048224084,"longitude":-113.47626614165334,"human_address":"{\"address\": \"\", \"city\": \"\", \"state\": \"\", \"zip\": \"\"}"},"address":"8105-96 Street NW","name":"06",":@computed_region_7ccj_gre3":"156",":@computed_region_ecxu_fw7u":"66",":@computed_region_izdr_ja4x":"7",":@computed_region_5jki_au6x":"5",":@computed_region_mnf4_kaez":"3",":@computed_region_da6r_6gkw":"11",":@computed_region_3z8d_fhyb":null}},
{"type":"Feature","geometry":{"type":"Point","coordinates":[-113.47023107354963,53.62821696669756]},"properties":{":id":"row-pmmz.j92w_udwf",":version":"rv-bc4r.3q6c~2yhi",":created_at":"2025-12-01T19:16:40.167Z",":updated_at":"2025-12-01T19:16:44.774Z","latitude":"53.62821696669756","longitude":"-113.47023107354963","location":{"latitude":53.62821696669756,"longitude":-113.47023107354963,"human_address":"{\"address\": \"\", \"city\": \"\", \"state\": \"\", \"zip\": \"\"}"},"address":"8403-167 AVE","name":"25",":@computed_region_7ccj_gre3":"106",":@computed_region_ecxu_fw7u":"163",":@computed_region_izdr_ja4x":"1",":@computed_region_5jki_au6x":"2",":@computed_region_mnf4_kaez":"6",":@computed_region_da6r_6gkw":"3",":@computed_region_3z8d_fhyb":null}},
{"type":"Feature","geometry":{"type":"Point","coordinates":[-113.48049338406081,53.561295756335205]},"properties":{":id":"row-2y3s~x4jx~prf9",":version":"rv-avrm~6g9i-y24n",":created_at":"2025-12-01T19:16:40.167Z",":updated_at":"2025-12-01T19:16:44.774Z","latitude":"53.561295756335205","longitude":"-113.48049338406081","location":{"latitude":53.561295756335205,"longitude":-113.48049338406081,"human_address":"{\"address\": \"\", \"city\": \"\", \"state\": \"\", \"zip\": \"\"}"},"address":"9020-111 Avenue NW","name":"05",":@computed_region_7ccj_gre3":"42",":@computed_region_ecxu_fw7u":"150",":@computed_region_izdr_ja4x":"4",":@computed_region_5jki_au6x":"3",":@computed_region_mnf4_kaez":"10",":@computed_region_da6r_6gkw":"7",":@computed_region_3z8d_fhyb":null}},
{"type":"Feature","geometry":{"type":"Point","coordinates":[-113.59080564515989,53.52381364348464]},"properties":{":id":"row-n3n5.jfqv~afdb",":version":"rv-9e6p-9pqv~pxaq",":created_at":"2025-12-01T19:16:40.167Z",":updated_at":"2025-12-01T19:16:44.774Z","latitude":"53.52381364348464","longitude":"-113.59080564515989","location":{"latitude":53.52381364348464,"longitude":-113.59080564515989,"human_address":"{\"address\": \"\", \"city\": \"\", \"state\": \"\", \"zip\": \"\"}"},"address":"9020-156 Street NW","name":"12",":@computed_region_7ccj_gre3":"27",":@computed_region_ecxu_fw7u":"99",":@computed_region_izdr_ja4x":"5",":@computed_region_5jki_au6x":"4",":@computed_region_mnf4_kaez":"1",":@computed_region_da6r_6gkw":"1",":@computed_region_3z8d_fhyb":null}},
{"type":"Feature","geometry":{"type":"Point","coordinates":[-113.48342629802026,53.54788515684706]},"properties":{":id":"row-gwuy~gg6j.rpvt",":version":"rv-vfi9.ctg8-ebvx",":created_at":"2025-12-01T19:16:40.167Z",":updated_at":"2025-12-01T19:16:44.774Z","latitude":"53.54788515684706","longitude":"-113.48342629802026","location":{"latitude":53.54788515684706,"longitude":-113.48342629802026,"human_address":"{\"address\": \"\", \"city\": \"\", \"state\": \"\", \"zip\": \"\"}"},"address":"10351-96 Street NW","name":"01",":@computed_region_7ccj_gre3":"154",":@computed_region_ecxu_fw7u":"153",":@computed_region_izdr_ja4x":"4",":@computed_region_5jki_au6x":"5",":@computed_region_mnf4_kaez":"9",":@computed_region_da6r_6gkw":"6",":@computed_region_3z8d_fhyb":null}},
{"type":"Feature","geometry":{"type":"Point","coordinates":[-113.45357984857213,53.60675415012312]},"properties":{":id":"row-fz77-frk6_awh8",":version":"rv-89mx-e4xu~wuke",":created_at":"2025-12-01T19:16:40.167Z",":updated_at":"2025-12-01T19:16:44.774Z","latitude":"53.60675415012312","longitude":"-113.45357984857213","location":{"latitude":53.60675415012312,"longitude":-113.45357984857213,"human_address":"{\"address\": \"\", \"city\": \"\", \"state\": \"\", \"zip\": \"\"}"},"address":"7312-144 Avenue","name":"14",":@computed_region_7ccj_gre3":"167",":@computed_region_ecxu_fw7u":"166",":@computed_region_izdr_ja4x":"2",":@computed_region_5jki_au6x":"3",":@computed_region_mnf4_kaez":"6",":@computed_region_da6r_6gkw":"3",":@computed_region_3z8d_fhyb":null}},
{"type":"Feature","geometry":{"type":"Point","coordinates":[-113.41954918797457,53.49439663510459]},"properties":{":id":"row-36pm.4jrf-g5aq",":version":"rv-hfj3.ri4g~44ev",":created_at":"2025-12-01T19:16:40.167Z",":updated_at":"2025-12-01T19:16:44.774Z","latitude":"53.49439663510459","longitude":"-113.41954918797457","location":{"latitude":53.49439663510459,"longitude":-113.41954918797457,"human_address":"{\"address\": \"\", \"city\": \"\", \"state\": \"\", \"zip\": \"\"}"},"address":"5604-50 Street NW","name":"09",":@computed_region_7ccj_gre3":"270",":@computed_region_ecxu_fw7u":"131",":@computed_region_izdr_ja4x":"7",":@computed_region_5jki_au6x":"5",":@computed_region_mnf4_kaez":"3",":@computed_region_da6r_6gkw":"11",":@computed_region_3z8d_fhyb":null}},
{"type":"Feature","geometry":{"type":"Point","coordinates":[-113.5220605540565,53.512576545004585]},"properties":{":id":"row-uixg.gc5g_7ryg",":version":"rv-xfwa~mu4y_86cm",":created_at":"2025-12-01T19:16:40.167Z",":updated_at":"2025-12-01T19:16:44.774Z","latitude":"53.512576545004585","longitude":"-113.5220605540565","location":{"latitude":53.512576545004585,"longitude":-113.5220605540565,"human_address":"{\"address\": \"\", \"city\": \"\", \"state\": \"\", \"zip\": \"\"}"},"address":"11226-76 Avenue NW","name":"03",":@computed_region_7ccj_gre3":"59",":@computed_region_ecxu_fw7u":"18",":@computed_region_izdr_ja4x":"6",":@computed_region_5jki_au6x":"5",":@computed_region_mnf4_kaez":"11",":@computed_region_da6r_6gkw":"8",":@computed_region_3z8d_fhyb":null}},
{"type":"Feature","geometry":{"type":"Point","coordinates":[-113.62796231018741,53.54305317494303]},"properties":{":id":"row-2acu~bx3b-r3s5",":version":"rv-qtwj-k935.h3ju",":created_at":"2025-12-01T19:16:40.167Z",":updated_at":"2025-12-01T19:16:44.774Z","latitude":"53.54305317494303","longitude":"-113.62796231018741","location":{"latitude":53.54305317494303,"longitude":-113.62796231018741,"human_address":"{\"address\": \"\", \"city\": \"\", \"state\": \"\", \"zip\": \"\"}"},"address":"10130-178 Street NW","name":"23",":@computed_region_7ccj_gre3":"113",":@computed_region_ecxu_fw7u":"86",":@computed_region_izdr_ja4x":"3",":@computed_region_5jki_au6x":"1",":@computed_region_mnf4_kaez":"1",":@computed_region_da6r_6gkw":"1",":@computed_region_3z8d_fhyb":null}},
{"type":"Feature","geometry":{"type":"Point","coordinates":[-113.41704464554698,53.61975843986504]},"properties":{":id":"row-5pm5_432b~ctbu",":version":"rv-6y9b_b5me-e6vd",":created_at":"2025-12-01T19:16:40.167Z",":updated_at":"2025-12-01T19:16:44.774Z","latitude":"53.61975843986504","longitude":"-113.41704464554698","location":{"latitude":53.61975843986504,"longitude":-113.41704464554698,"human_address":"{\"address\": \"\", \"city\": \"\", \"state\": \"\", \"zip\": \"\"}"},"address":"15850 - 50 St NW","name":"30",":@computed_region_7ccj_gre3":"153",":@computed_region_ecxu_fw7u":"189",":@computed_region_izdr_ja4x":"2",":@computed_region_5jki_au6x":"2",":@computed_region_mnf4_kaez":"7",":@computed_region_da6r_6gkw":"4",":@computed_region_3z8d_fhyb":null}},
{"type":"Feature","geometry":{"type":"Point","coordinates":[-113.3927343947088,53.458086377492066]},"properties":{":id":"row-em3b_432p_cayr",":version":"rv-cmtw.dgmb_pfgd",":created_at":"2025-12-01T19:16:40.167Z",":updated_at":"2025-12-01T19:16:44.774Z","latitude":"53.458086377492066","longitude":"-113.3927343947088","location":{"latitude":53.458086377492066,"longitude":-113.3927343947088,"human_address":"{\"address\": \"\", \"city\": \"\", \"state\": \"\", \"zip\": \"\"}"},"address":"2803-34 St NW","name":"26",":@computed_region_7ccj_gre3":"230",":@computed_region_ecxu_fw7u":"134",":@computed_region_izdr_ja4x":"7",":@computed_region_5jki_au6x":"7",":@computed_region_mnf4_kaez":"4",":@computed_region_da6r_6gkw":"12",":@computed_region_3z8d_fhyb":null}},
{"type":"Feature","geometry":{"type":"Point","coordinates":[-113.50414476290258,53.54355029355009]},"properties":{":id":"row-divs.t6rd_c5kj",":version":"rv-vdhq-diyz.6asd",":created_at":"2025-12-01T19:16:40.167Z",":updated_at":"2025-12-01T19:16:44.774Z","latitude":"53.54355029355009","longitude":"-113.50414476290258","location":{"latitude":53.54355029355009,"longitude":-113.50414476290258,"human_address":"{\"address\": \"\", \"city\": \"\", \"state\": \"\", \"zip\": \"\"}"},"address":"10217-107 Street NW","name":"02",":@computed_region_7ccj_gre3":"338",":@computed_region_ecxu_fw7u":"242",":@computed_region_izdr_ja4x":"4",":@computed_region_5jki_au6x":"5",":@computed_region_mnf4_kaez":"9",":@computed_region_da6r_6gkw":"6",":@computed_region_3z8d_fhyb":null}},
{"type":"Feature","geometry":{"type":"Point","coordinates":[-113.52408957307578,53.57019804194733]},"properties":{":id":"row-v4cx~rmha~863g",":version":"rv-wnjs_qka2-f5s7",":created_at":"2025-12-01T19:16:40.167Z",":updated_at":"2025-12-01T19:16:44.774Z","latitude":"53.57019804194733","longitude":"-113.52408957307578","location":{"latitude":53.57019804194733,"longitude":-113.52408957307578,"human_address":"{\"address\": \"\", \"city\": \"\", \"state\": \"\", \"zip\": \"\"}"},"address":"8603 FLYING CLUB RD NW","name":"08",":@computed_region_7ccj_gre3":"209",":@computed_region_ecxu_fw7u":"221",":@computed_region_izdr_ja4x":"3",":@computed_region_5jki_au6x":"1",":@computed_region_mnf4_kaez":"5",":@computed_region_da6r_6gkw":"2",":@computed_region_3z8d_fhyb":null}},
{"type":"Feature","geometry":{"type":"Point","coordinates":[-113.48046665366263,53.4894576329681]},"properties":{":id":"row-47u2-c25w.ec7n",":version":"rv-ik88~qb7j_p9y2",":created_at":"2025-12-01T19:16:40.167Z",":updated_at":"2025-12-01T19:16:44.774Z","latitude":"53.4894576329681","longitude":"-113.48046665366263","location":{"latitude":53.4894576329681,"longitude":-113.48046665366263,"human_address":"{\"address\": \"\", \"city\": \"\", \"state\": \"\", \"zip\": \"\"}"},"address":"5120-97 Street NW","name":"15",":@computed_region_7ccj_gre3":"159",":@computed_region_ecxu_fw7u":"11",":@computed_region_izdr_ja4x":"7",":@computed_region_5jki_au6x":"5",":@computed_region_mnf4_kaez":"3",":@computed_region_da6r_6gkw":"11",":@computed_region_3z8d_fhyb":null}},
{"type":"Feature","geometry":{"type":"Point","coordinates":[-113.51679519360515,53.61762225743832]},"properties":{":id":"row-5252_28n3.smyv",":version":"rv-994d-chqn-abaq",":created_at":"2025-12-01T19:16:40.167Z",":updated_at":"2025-12-01T19:16:44.774Z","latitude":"53.61762225743832","longitude":"-113.51679519360515","location":{"latitude":53.61762225743832,"longitude":-113.51679519360515,"human_address":"{\"address\": \"\", \"city\": \"\", \"state\": \"\", \"zip\": \"\"}"},"address":"15505 Castle Downs Road NW","name":"17",":@computed_region_7ccj_gre3":"192",":@computed_region_ecxu_fw7u":"236",":@computed_region_izdr_ja4x":"1",":@computed_region_5jki_au6x":"2",":@computed_region_mnf4_kaez":"6",":@computed_region_da6r_6gkw":"3",":@computed_region_3z8d_fhyb":null}},
{"type":"Feature","geometry":{"type":"Point","coordinates":[-113.53804517969594,53.477935812975545]},"properties":{":id":"row-ah5e-izkf_xbkc",":version":"rv-8fuc-rfi9_ddqw",":created_at":"2025-12-01T19:16:40.167Z",":updated_at":"2025-12-01T19:16:44.774Z","latitude":"53.477935812975545","longitude":"-113.53804517969594","location":{"latitude":53.477935812975545,"longitude":-113.53804517969594,"human_address":"{\"address\": \"\", \"city\": \"\", \"state\": \"\", \"zip\": \"\"}"},"address":"4035-119 Street NW","name":"13",":@computed_region_7ccj_gre3":"110",":@computed_region_ecxu_fw7u":"13",":@computed_region_izdr_ja4x":"6",":@computed_region_5jki_au6x":"6",":@computed_region_mnf4_kaez":"2",":@computed_region_da6r_6gkw":"10",":@computed_region_3z8d_fhyb":null}}
] }
