{ "type": "FeatureCollection", "features": [
{"type":"Feature","geometry":{"type":"Point","coordinates":[-113.41730142003281,53.60503991263262]},"properties":{":id":"row-qkgt-vwqf.vsak",":version":"rv-p84j~h2r9_khzs",":created_at":"2024-06-28T10:09:10.584Z",":updated_at":"2024-06-28T10:09:15.006Z","name":"POLICE SERVICES - NORTHEAST DIVISION","address":"14203 - 50 STREET NW","latitude":"53.60503991263262","longitude":"-113.41730142003281","location":{"latitude":53.60503991263262,"longitude":-113.41730142003281,"human_address":"{\"address\": \"\", \"city\": \"\", \"state\": \"\", \"zip\": \"\"}"},":@computed_region_7ccj_gre3":"83",":@computed_region_ecxu_fw7u":"189",":@computed_region_izdr_ja4x":"2",":@computed_region_5jki_au6x":"3",":@computed_region_mnf4_kaez":"7",":@computed_region_da6r_6gkw":"4",":@computed_region_3z8d_fhyb":null}},
{"type":"Feature","geometry":{"type":"Point","coordinates":[-113.50911929739945,53.55984492708671]},"properties":{":id":"row-t43u.44qp.rikd",":version":"rv-2c44.r4e9~fe8r",":created_at":"2024-06-28T10:09:10.584Z",":updated_at":"2024-06-28T10:09:15.006Z","name":"ROYAL CANADIAN MOUNTED POLICE","address":"11136 - 109 STREET NW","latitude":"53.55984492708671","longitude":"-113.50911929739945","location":{"latitude":53.55984492708671,"longitude":-113.50911929739945,"human_address":"{\"address\": \"\", \"city\": \"\", \"state\": \"\", \"zip\": \"\"}"},":@computed_region_7ccj_gre3":"3",":@computed_region_ecxu_fw7u":"220",":@computed_region_izdr_ja4x":"3",":@computed_region_5jki_au6x":"1",":@computed_region_mnf4_kaez":"5",":@computed_region_da6r_6gkw":"2",":@computed_region_3z8d_fhyb":null}},
{"type":"Feature","geometry":{"type":"Point","coordinates":[-113.60674227242592,53.538808087195235]},"properties":{":id":"row-w4d5_hv7y~w36z",":version":"rv-h54n~6hjc-5qk3",":created_at":"2024-06-28T10:09:10.584Z",":updated_at":"2024-06-28T10:09:15.006Z","name":"POLICE SERVICES - WEST DIVISION","address":"16505 - 100 AVENUE NW","latitude":"53.538808087195235","longitude":"-113.60674227242592","location":{"latitude":53.538808087195235,"longitude":-113.60674227242592,"human_address":"{\"address\": \"\", \"city\": \"\", \"state\": \"\", \"zip\": \"\"}"},":@computed_region_7ccj_gre3":"31",":@computed_region_ecxu_fw7u":"93",":@computed_region_izdr_ja4x":"5",":@computed_region_5jki_au6x":"1",":@computed_region_mnf4_kaez":"1",":@computed_region_da6r_6gkw":"1",":@computed_region_3z8d_fhyb":null}},
{"type":"Feature","geometry":{"type":"Point","coordinates":[-113.50911929739945,53.55984492708671]},"properties":{":id":"row-ubzh~ff5g_sj5z",":version":"rv-j6vk_6u88-6i7f",":created_at":"2024-06-28T10:09:10.584Z",":updated_at":"2024-06-28T10:09:15.006Z","name":"RCMP K DIVISION","address":"11136 - 109 STREET NW","latitude":"53.55984492708671","longitude":"-113.50911929739945","location":{"latitude":53.55984492708671,"longitude":-113.50911929739945,"human_address":"{\"address\": \"\", \"city\": \"\", \"state\": \"\", \"zip\": \"\"}"},":@computed_region_7ccj_gre3":"3",":@computed_region_ecxu_fw7u":"220",":@computed_region_izdr_ja4x":"3",":@computed_region_5jki_au6x":"1",":@computed_region_mnf4_kaez":"5",":@computed_region_da6r_6gkw":"2",":@computed_region_3z8d_fhyb":null}},
{"type":"Feature","geometry":{"type":"Point","coordinates":[-113.42671444062009,53.46000050776202]},"properties":{":id":"row-cgs8-bi7b.2jj5",":version":"rv-fw5c.y623_pwqp",":created_at":"2024-06-28T10:09:10.584Z",":updated_at":"2024-06-28T10:09:15.006Z","name":"POLICE SERVICES - SOUTHEAST DIVISION","address":"104 - YOUVILLE DRIVE EAST NW","latitude":"53.46000050776202","longitude":"-113.42671444062009","location":{"latitude":53.46000050776202,"longitude":-113.42671444062009,"human_address":"{\"address\": \"\", \"city\": \"\", \"state\": \"\", \"zip\": \"\"}"},":@computed_region_7ccj_gre3":"111",":@computed_region_ecxu_fw7u":"46",":@computed_region_izdr_ja4x":"9",":@computed_region_5jki_au6x":"7",":@computed_region_mnf4_kaez":"3",":@computed_region_da6r_6gkw":"11",":@computed_region_3z8d_fhyb":null}},
{"type":"Feature","geometry":{"type":"Point","coordinates":[-113.53865832870181,53.59313886487417]},"properties":{":id":"row-e9s7~ef45.b2ke",":version":"rv-np6f_cxsi_pnp3",":created_at":"2024-06-28T10:09:10.584Z",":updated_at":"2024-06-28T10:09:15.006Z","name":"POLICE SERVICES - CALDER COMMUNITY STATION","address":"12520 - 132 AVENUE NW","latitude":"53.59313886487417","longitude":"-113.53865832870181","location":{"latitude":53.59313886487417,"longitude":-113.53865832870181,"human_address":"{\"address\": \"\", \"city\": \"\", \"state\": \"\", \"zip\": \"\"}"},":@computed_region_7ccj_gre3":"253",":@computed_region_ecxu_fw7u":"49",":@computed_region_izdr_ja4x":"1",":@computed_region_5jki_au6x":"1",":@computed_region_mnf4_kaez":"5",":@computed_region_da6r_6gkw":"2",":@computed_region_3z8d_fhyb":null}},
{"type":"Feature","geometry":{"type":"Point","coordinates":[-113.61622843444515,53.43401240275048]},"properties":{":id":"row-a3pj_zkfb_8hfu",":version":"rv-4bye~eqwz~g243",":created_at":"2024-06-28T10:09:10.584Z",":updated_at":"2024-06-28T10:09:15.006Z","name":"POLICE SERVICES - SOUTHWEST DIVISION","address":"1351 - WINDERMERE WAY SW","latitude":"53.43401240275048","longitude":"-113.61622843444515","location":{"latitude":53.43401240275048,"longitude":-113.61622843444515,"human_address":"{\"address\": \"\", \"city\": \"\", \"state\": \"\", \"zip\": \"\"}"},":@computed_region_7ccj_gre3":"327",":@computed_region_ecxu_fw7u":"77",":@computed_region_izdr_ja4x":"8",":@computed_region_5jki_au6x":"6",":@computed_region_mnf4_kaez":"12",":@computed_region_da6r_6gkw":"9",":@computed_region_3z8d_fhyb":null}},
{"type":"Feature","geometry":{"type":"Point","coordinates":[-113.51010125424447,53.56079802714599]},"properties":{":id":"row-w5th~9ziv-rais",":version":"rv-nn27~ejez_5ueq",":created_at":"2024-06-28T10:09:10.584Z",":updated_at":"2024-06-28T10:09:15.006Z","name":"ROYAL CANADIAN MOUNTED POLICE","address":"11140 - 109 STREET NW","latitude":"53.56079802714599","longitude":"-113.51010125424447","location":{"latitude":53.56079802714599,"longitude":-113.51010125424447,"human_address":"{\"address\": \"\", \"city\": \"\", \"state\": \"\", \"zip\": \"\"}"},":@computed_region_7ccj_gre3":"3",":@computed_region_ecxu_fw7u":"220",":@computed_region_izdr_ja4x":"3",":@computed_region_5jki_au6x":"1",":@computed_region_mnf4_kaez":"5",":@computed_region_da6r_6gkw":"2",":@computed_region_3z8d_fhyb":null}},
{"type":"Feature","geometry":{"type":"Point","coordinates":[-113.48481672331988,53.547705967710215]},"properties":{":id":"row-3ei6_dv63~i67k",":version":"rv-tn53.j8cb-p7js",":created_at":"2024-06-28T10:09:10.584Z",":updated_at":"2024-06-28T10:09:15.006Z","name":"POLICE SERVICES - DOWNTOWN DIVISION","address":"9620 - 103A AVENUE NW","latitude":"53.547705967710215","longitude":"-113.48481672331988","location":{"latitude":53.547705967710215,"longitude":-113.48481672331988,"human_address":"{\"address\": \"\", \"city\": \"\", \"state\": \"\", \"zip\": \"\"}"},":@computed_region_7ccj_gre3":"154",":@computed_region_ecxu_fw7u":"153",":@computed_region_izdr_ja4x":"4",":@computed_region_5jki_au6x":"5",":@computed_region_mnf4_kaez":"9",":@computed_region_da6r_6gkw":"6",":@computed_region_3z8d_fhyb":null}},
{"type":"Feature","geometry":{"type":"Point","coordinates":[-113.51010125424447,53.56079802714599]},"properties":{":id":"row-m29i.whsu-d7gn",":version":"rv-jpwj~rpbn.9dhu",":created_at":"2024-06-28T10:09:10.584Z",":updated_at":"2024-06-28T10:09:15.006Z","name":"RCMP K DIVISION","address":"11140 - 109 STREET NW","latitude":"53.56079802714599","longitude":"-113.51010125424447","location":{"latitude":53.56079802714599,"longitude":-113.51010125424447,"human_address":"{\"address\": \"\", \"city\": \"\", \"state\": \"\", \"zip\": \"\"}"},":@computed_region_7ccj_gre3":"3",":@computed_region_ecxu_fw7u":"220",":@computed_region_izdr_ja4x":"3",":@computed_region_5jki_au6x":"1",":@computed_region_mnf4_kaez":"5",":@computed_region_da6r_6gkw":"2",":@computed_region_3z8d_fhyb":null}}
] }
